AMOS-17                 
1 44479U 19050A   26088.11853159  .00000090  00000+0  00000+0 0  9997
2 44479   0.0162 263.9615 0001293 105.9630 236.2670  1.00274504 24386
