[{"OBJECT_NAME":"AMOS-17","OBJECT_ID":"2019-050A","EPOCH":"2026-03-29T02:50:41.129376","MEAN_MOTION":1.00274504,"ECCENTRICITY":0.0001293,"INCLINATION":0.0162,"RA_OF_ASC_NODE":263.9615,"ARG_OF_PERICENTER":105.963,"MEAN_ANOMALY":236.267,"EPHEMERIS_TYPE":0,"CLASSIFICATION_TYPE":"U","NORAD_CAT_ID":44479,"ELEMENT_SET_NO":999,"REV_AT_EPOCH":2438,"BSTAR":0,"MEAN_MOTION_DOT":9.0e-7,"MEAN_MOTION_DDOT":0}]
